CCSDS_OMM_VERS = 2.0
CREATION_DATE  = 
ORIGINATOR     = 

OBJECT_NAME    = SL-16 R/B
OBJECT_ID      = 1993-016B
CENTER_NAME    = EARTH
REF_FRAME      = TEME
TIME_SYSTEM    = UTC
MEAN_ELEMENT_THEORY = SGP/SGP4

EPOCH          = 2025-12-10T12:20:20.758560
MEAN_MOTION    = 14.15287115
ECCENTRICITY   = .0007839
INCLINATION    = 71.0086
RA_OF_ASC_NODE = 42.4785
ARG_OF_PERICENTER = 101.7988
MEAN_ANOMALY   = 258.4015

EPHEMERIS_TYPE = 0
CLASSIFICATION_TYPE = U
NORAD_CAT_ID   = 22566
ELEMENT_SET_NO = 999
REV_AT_EPOCH   = 68955
BSTAR          = -.4306495E-4
MEAN_MOTION_DOT = -.131E-5
MEAN_MOTION_DDOT = 0

CCSDS_OMM_VERS = 2.0
CREATION_DATE  = 
ORIGINATOR     = 

OBJECT_NAME    = COSMOS 2242
OBJECT_ID      = 1993-024A
CENTER_NAME    = EARTH
REF_FRAME      = TEME
TIME_SYSTEM    = UTC
MEAN_ELEMENT_THEORY = SGP/SGP4

EPOCH          = 2025-12-10T23:07:43.820832
MEAN_MOTION    = 14.96094087
ECCENTRICITY   = .00148802
INCLINATION    = 82.5191
RA_OF_ASC_NODE = 351.5422
ARG_OF_PERICENTER = 240.7447
MEAN_ANOMALY   = 119.2287

EPHEMERIS_TYPE = 0
CLASSIFICATION_TYPE = U
NORAD_CAT_ID   = 22626
ELEMENT_SET_NO = 999
REV_AT_EPOCH   = 76712
BSTAR          = .30199613E-3
MEAN_MOTION_DOT = .3426E-4
MEAN_MOTION_DDOT = 0

CCSDS_OMM_VERS = 2.0
CREATION_DATE  = 
ORIGINATOR     = 

OBJECT_NAME    = SL-16 R/B
OBJECT_ID      = 1993-059B
CENTER_NAME    = EARTH
REF_FRAME      = TEME
TIME_SYSTEM    = UTC
MEAN_ELEMENT_THEORY = SGP/SGP4

EPOCH          = 2025-12-10T21:31:40.177920
MEAN_MOTION    = 14.17213645
ECCENTRICITY   = .00179065
INCLINATION    = 70.9895
RA_OF_ASC_NODE = 198.3724
ARG_OF_PERICENTER = 338.2294
MEAN_ANOMALY   = 21.8067

EPHEMERIS_TYPE = 0
CLASSIFICATION_TYPE = U
NORAD_CAT_ID   = 22803
ELEMENT_SET_NO = 999
REV_AT_EPOCH   = 66695
BSTAR          = .50644E-6
MEAN_MOTION_DOT = -.47E-6
MEAN_MOTION_DDOT = 0

CCSDS_OMM_VERS = 2.0
CREATION_DATE  = 
ORIGINATOR     = 

OBJECT_NAME    = ARIANE 40 R/B
OBJECT_ID      = 1993-061H
CENTER_NAME    = EARTH
REF_FRAME      = TEME
TIME_SYSTEM    = UTC
MEAN_ELEMENT_THEORY = SGP/SGP4

EPOCH          = 2025-12-10T15:54:36.916992
MEAN_MOTION    = 14.32799431
ECCENTRICITY   = .00107533
INCLINATION    = 98.5079
RA_OF_ASC_NODE = 50.2307
ARG_OF_PERICENTER = 182.0753
MEAN_ANOMALY   = 178.0388

EPHEMERIS_TYPE = 0
CLASSIFICATION_TYPE = U
NORAD_CAT_ID   = 22830
ELEMENT_SET_NO = 999
REV_AT_EPOCH   = 68135
BSTAR          = .1810939E-3
MEAN_MOTION_DOT = .451E-5
MEAN_MOTION_DDOT = 0

CCSDS_OMM_VERS = 2.0
CREATION_DATE  = 
ORIGINATOR     = 

OBJECT_NAME    = COSMOS 2278
OBJECT_ID      = 1994-023A
CENTER_NAME    = EARTH
REF_FRAME      = TEME
TIME_SYSTEM    = UTC
MEAN_ELEMENT_THEORY = SGP/SGP4

EPOCH          = 2025-12-10T11:38:12.927840
MEAN_MOTION    = 14.14350875
ECCENTRICITY   = .00084349
INCLINATION    = 71.0544
RA_OF_ASC_NODE = 1.7288
ARG_OF_PERICENTER = 183.3840
MEAN_ANOMALY   = 176.7227

EPHEMERIS_TYPE = 0
CLASSIFICATION_TYPE = U
NORAD_CAT_ID   = 23087
ELEMENT_SET_NO = 999
REV_AT_EPOCH   = 63219
BSTAR          = -.52233199E-4
MEAN_MOTION_DOT = -.147E-5
MEAN_MOTION_DDOT = 0

CCSDS_OMM_VERS = 2.0
CREATION_DATE  = 
ORIGINATOR     = 

OBJECT_NAME    = SL-16 R/B
OBJECT_ID      = 1994-023B
CENTER_NAME    = EARTH
REF_FRAME      = TEME
TIME_SYSTEM    = UTC
MEAN_ELEMENT_THEORY = SGP/SGP4

EPOCH          = 2025-12-10T17:07:20.575776
MEAN_MOTION    = 14.15002569
ECCENTRICITY   = .00012579
INCLINATION    = 71.0009
RA_OF_ASC_NODE = 257.7409
ARG_OF_PERICENTER = 34.3201
MEAN_ANOMALY   = 325.8003

EPHEMERIS_TYPE = 0
CLASSIFICATION_TYPE = U
NORAD_CAT_ID   = 23088
ELEMENT_SET_NO = 999
REV_AT_EPOCH   = 63350
BSTAR          = .91476882E-4
MEAN_MOTION_DOT = .129E-5
MEAN_MOTION_DDOT = 0

CCSDS_OMM_VERS = 2.0
CREATION_DATE  = 
ORIGINATOR     = 

OBJECT_NAME    = SL-16 R/B
OBJECT_ID      = 1994-074B
CENTER_NAME    = EARTH
REF_FRAME      = TEME
TIME_SYSTEM    = UTC
MEAN_ELEMENT_THEORY = SGP/SGP4

EPOCH          = 2025-12-10T20:52:10.701984
MEAN_MOTION    = 14.79286192
ECCENTRICITY   = .00074381
INCLINATION    = 97.7204
RA_OF_ASC_NODE = 14.2485
ARG_OF_PERICENTER = 141.0473
MEAN_ANOMALY   = 32.0355

EPHEMERIS_TYPE = 0
CLASSIFICATION_TYPE = U
NORAD_CAT_ID   = 23343
ELEMENT_SET_NO = 999
REV_AT_EPOCH   = 67411
BSTAR          = .10957654E-3
MEAN_MOTION_DOT = .766E-5
MEAN_MOTION_DDOT = 0

CCSDS_OMM_VERS = 2.0
CREATION_DATE  = 
ORIGINATOR     = 

OBJECT_NAME    = SL-16 R/B
OBJECT_ID      = 1994-077B
CENTER_NAME    = EARTH
REF_FRAME      = TEME
TIME_SYSTEM    = UTC
MEAN_ELEMENT_THEORY = SGP/SGP4

EPOCH          = 2025-12-10T19:12:34.942752
MEAN_MOTION    = 14.15548464
ECCENTRICITY   = .00046182
INCLINATION    = 70.9811
RA_OF_ASC_NODE = 179.4937
ARG_OF_PERICENTER = 285.4959
MEAN_ANOMALY   = 74.5653

EPHEMERIS_TYPE = 0
CLASSIFICATION_TYPE = U
NORAD_CAT_ID   = 23405
ELEMENT_SET_NO = 999
REV_AT_EPOCH   = 60365
BSTAR          = .1739354E-3
MEAN_MOTION_DOT = .292E-5
MEAN_MOTION_DDOT = 0

CCSDS_OMM_VERS = 2.0
CREATION_DATE  = 
ORIGINATOR     = 

OBJECT_NAME    = ARIANE 40+ R/B
OBJECT_ID      = 1995-021B
CENTER_NAME    = EARTH
REF_FRAME      = TEME
TIME_SYSTEM    = UTC
MEAN_ELEMENT_THEORY = SGP/SGP4

EPOCH          = 2025-12-10T22:49:38.621280
MEAN_MOTION    = 14.39693342
ECCENTRICITY   = .00075571
INCLINATION    = 98.4653
RA_OF_ASC_NODE = 52.5615
ARG_OF_PERICENTER = 54.7156
MEAN_ANOMALY   = 118.0015

EPHEMERIS_TYPE = 0
CLASSIFICATION_TYPE = U
NORAD_CAT_ID   = 23561
ELEMENT_SET_NO = 999
REV_AT_EPOCH   = 60647
BSTAR          = .17521442E-3
MEAN_MOTION_DOT = .505E-5
MEAN_MOTION_DDOT = 0

CCSDS_OMM_VERS = 2.0
CREATION_DATE  = 
ORIGINATOR     = 

OBJECT_NAME    = SL-16 R/B
OBJECT_ID      = 1995-058B
CENTER_NAME    = EARTH
REF_FRAME      = TEME
TIME_SYSTEM    = UTC
MEAN_ELEMENT_THEORY = SGP/SGP4

EPOCH          = 2025-12-10T19:16:18.793920
MEAN_MOTION    = 14.15483518
ECCENTRICITY   = .00149633
INCLINATION    = 71.0225
RA_OF_ASC_NODE = 6.8707
ARG_OF_PERICENTER = 257.7684
MEAN_ANOMALY   = 102.1763

EPHEMERIS_TYPE = 0
CLASSIFICATION_TYPE = U
NORAD_CAT_ID   = 23705
ELEMENT_SET_NO = 999
REV_AT_EPOCH   = 55527
BSTAR          = .99505081E-4
MEAN_MOTION_DOT = .147E-5
MEAN_MOTION_DDOT = 0

CCSDS_OMM_VERS = 2.0
CREATION_DATE  = 
ORIGINATOR     = 

OBJECT_NAME    = SL-16 R/B
OBJECT_ID      = 1996-051B
CENTER_NAME    = EARTH
REF_FRAME      = TEME
TIME_SYSTEM    = UTC
MEAN_ELEMENT_THEORY = SGP/SGP4

EPOCH          = 2025-12-10T18:55:59.924064
MEAN_MOTION    = 14.12396355
ECCENTRICITY   = .00193636
INCLINATION    = 70.7594
RA_OF_ASC_NODE = 3.4135
ARG_OF_PERICENTER = 263.7302
MEAN_ANOMALY   = 96.1612

EPHEMERIS_TYPE = 0
CLASSIFICATION_TYPE = U
NORAD_CAT_ID   = 24298
ELEMENT_SET_NO = 999
REV_AT_EPOCH   = 50909
BSTAR          = .42547293E-4
MEAN_MOTION_DOT = .29E-6
MEAN_MOTION_DDOT = 0

CCSDS_OMM_VERS = 2.0
CREATION_DATE  = 
ORIGINATOR     = 

OBJECT_NAME    = ORBVIEW 2 (SEASTAR)
OBJECT_ID      = 1997-037A
CENTER_NAME    = EARTH
REF_FRAME      = TEME
TIME_SYSTEM    = UTC
MEAN_ELEMENT_THEORY = SGP/SGP4

EPOCH          = 2025-12-10T16:25:59.525472
MEAN_MOTION    = 14.35414859
ECCENTRICITY   = .00017481
INCLINATION    = 98.8456
RA_OF_ASC_NODE = 141.7075
ARG_OF_PERICENTER = 348.8403
MEAN_ANOMALY   = 11.2742

EPHEMERIS_TYPE = 0
CLASSIFICATION_TYPE = U
NORAD_CAT_ID   = 24883
ELEMENT_SET_NO = 999
REV_AT_EPOCH   = 49570
BSTAR          = .20693862E-3
MEAN_MOTION_DOT = .548E-5
MEAN_MOTION_DDOT = 0

